[{"OBJECT_NAME":"STARLINK-5911","OBJECT_ID":"2023-037AN","EPOCH":"2026-03-09T23:23:07.999296","MEAN_MOTION":14.98333079,"ECCENTRICITY":0.00027499,"INCLINATION":69.9979,"RA_OF_ASC_NODE":263.8256,"ARG_OF_PERICENTER":269.9598,"MEAN_ANOMALY":90.1246,"EPHEMERIS_TYPE":0,"CLASSIFICATION_TYPE":"U","NORAD_CAT_ID":55950,"ELEMENT_SET_NO":999,"REV_AT_EPOCH":16451,"BSTAR":4.2189496e-5,"MEAN_MOTION_DOT":4.1e-6,"MEAN_MOTION_DDOT":0},{"OBJECT_NAME":"COSMOS 2221","OBJECT_ID":"1992-080A","EPOCH":"2026-03-09T23:19:19.777152","MEAN_MOTION":14.9620142,"ECCENTRICITY":0.00140703,"INCLINATION":82.5011,"RA_OF_ASC_NODE":278.8108,"ARG_OF_PERICENTER":186.0623,"MEAN_ANOMALY":174.0431,"EPHEMERIS_TYPE":0,"CLASSIFICATION_TYPE":"U","NORAD_CAT_ID":22236,"ELEMENT_SET_NO":999,"REV_AT_EPOCH":78083,"BSTAR":0.00019500053,"MEAN_MOTION_DOT":2.227e-5,"MEAN_MOTION_DDOT":0}]
